FENGYUN 1C DEB          
1 38819U 99025EVK 17337.35131053  .00000219  00000-0  13213-3 0  9991
2 38819  98.7714  13.1325 0084944 321.5281  94.7268 14.14755710274704
